NORAD_CAT_ID,OBJECT_NAME,OBJECT_TYPE,EPOCH,MEAN_MOTION,ECCENTRICITY,INCLINATION,RA_OF_ASC_NODE,ARG_OF_PERICENTER,MEAN_ANOMALY,BSTAR,MEAN_MOTION_DOT,MEAN_MOTION_DDOT,TLE_LINE0,TLE_LINE1,TLE_LINE2,SEMIMAJOR_AXIS,PERIOD,APOGEE,PERIGEE,DECAYED
50839.0,STARLINK-3320,PAYLOAD,2024-06-30 20:32:29,15.08825418,0.0001805,53.2178,68.1987,84.9819,275.1379,-0.00029035,-4.904e-05,0.0,0 STARLINK-3320,1 50839U 22001AN  24182.85589242 -.00004904  00000-0 -29035-3 0  9991,2 50839  53.2178  68.1987 0001805  84.9819 275.1379 15.08825418138418,6917.925,95.438,541.039,538.541,0.0
50839.0,STARLINK-3320,PAYLOAD,2024-06-30 22:07:52,15.08820628,9.35e-05,53.2168,67.8978,76.1549,283.9548,-0.00037869,-6.306e-05,0.0,0 STARLINK-3320,1 50839U 22001AN  24182.92213833 -.00006306  00000-0 -37869-3 0  9991,2 50839  53.2168  67.8978 0000935  76.1549 283.9548 15.08820628137141,6917.94,95.439,540.451,539.158,0.0
50839.0,STARLINK-3320,PAYLOAD,2024-07-01 01:18:37,15.08844564,0.0001226,53.217,67.3036,104.2307,255.8821,-0.00011726,-2.154e-05,0.0,0 STARLINK-3320,1 50839U 22001AN  24183.05459547 -.00002154  00000-0 -11726-3 0  9991,2 50839  53.2170  67.3036 0001226 104.2307 255.8821 15.08844564138444,6917.866,95.437,540.58,538.883,0.0
50839.0,STARLINK-3320,PAYLOAD,2024-07-01 09:15:31,15.0885332,0.000113,53.2166,65.8164,88.4866,271.6256,-8.6785e-06,-4.26e-06,0.0,0 STARLINK-3320,1 50839U 22001AN  24183.38578659 -.00000426  00000-0 -86785-5 0  9992,2 50839  53.2166  65.8164 0001130  88.4866 271.6256 15.08853320138494,6917.84,95.437,540.486,538.923,0.0
50839.0,STARLINK-3320,PAYLOAD,2024-07-01 21:58:36,15.08846656,0.000106,53.2154,63.4391,81.6429,278.4683,0.00049675,7.628e-05,0.0,0 STARLINK-3320,1 50839U 22001AN  24183.91570068  .00007628  00000-0  49675-3 0  9991,2 50839  53.2154  63.4391 0001060  81.6429 278.4683 15.08846656137299,6917.86,95.437,540.458,538.992,0.0
50839.0,STARLINK-3320,PAYLOAD,2024-07-02 09:06:19,15.0884384,0.0001497,53.2167,61.3556,68.7534,291.3618,0.00028131,4.192e-05,0.0,0 STARLINK-3320,1 50839U 22001AN  24184.37939103  .00004192  00000-0  28131-3 0  9998,2 50839  53.2167  61.3556 0001497  68.7534 291.3618 15.08843840138644,6917.869,95.437,540.769,538.698,0.0
50839.0,STARLINK-3320,PAYLOAD,2024-07-02 20:14:02,15.08829593,0.0001332,53.2161,59.2766,74.3295,285.7844,0.00022816,3.344e-05,0.0,0 STARLINK-3320,1 50839U 22001AN  24184.84308297  .00003344  00000-0  22816-3 0  9996,2 50839  53.2161  59.2766 0001332  74.3295 285.7844 15.08829593138717,6917.912,95.438,540.699,538.856,0.0
50839.0,STARLINK-3320,PAYLOAD,2024-07-02 21:49:25,15.08820236,0.0001669,53.2166,58.9789,74.1202,285.9974,0.00041118,6.258e-05,0.0,0 STARLINK-3320,1 50839U 22001AN  24184.90932441  .00006258  00000-0  41118-3 0  9990,2 50839  53.2166  58.9789 0001669  74.1202 285.9974 15.08820236137442,6917.941,95.439,540.96,538.651,0.0
50839.0,STARLINK-3320,PAYLOAD,2024-07-03 08:57:06,15.08850029,0.000105,53.2158,56.8941,91.3595,268.7518,4.9145e-06,-2.1e-06,0.0,0 STARLINK-3320,1 50839U 22001AN  24185.37299272 -.00000210  00000-0  49145-5 0  9993,2 50839  53.2158  56.8941 0001050  91.3595 268.7518 15.08850029138795,6917.85,95.437,540.441,538.988,0.0
50839.0,STARLINK-3320,PAYLOAD,2024-07-03 20:04:47,15.08859074,0.0001455,53.2153,54.8141,84.3373,275.7785,-8.4865e-05,-1.639e-05,0.0,0 STARLINK-3320,1 50839U 22001AN  24185.83666555 -.00001639  00000-0 -84865-4 0  9990,2 50839  53.2153  54.8141 0001455  84.3373 275.7785 15.08859074138866,6917.822,95.436,540.694,538.681,0.0
50839.0,STARLINK-3320,PAYLOAD,2024-07-03 21:40:10,15.08861942,0.0001167,53.2157,54.5162,79.9231,280.1893,-0.00011729,-2.155e-05,0.0,0 STARLINK-3320,1 50839U 22001AN  24185.90290303 -.00002155  00000-0 -11729-3 0  9994,2 50839  53.2157  54.5162 0001167  79.9231 280.1893 15.08861942137599,6917.813,95.436,540.486,538.871,0.0
50839.0,STARLINK-3320,PAYLOAD,2024-07-04 00:50:56,15.08867385,0.0001173,53.2169,53.9203,98.2714,261.8411,-9.5373e-05,-1.807e-05,0.0,0 STARLINK-3320,1 50839U 22001AN  24186.03537640 -.00001807  00000-0 -95373-4 0  9998,2 50839  53.2169  53.9203 0001173  98.2714 261.8411 15.08867385138891,6917.797,95.436,540.473,538.85,0.0
50839.0,STARLINK-3320,PAYLOAD,2024-07-04 08:47:52,15.08856183,0.000137,53.2168,52.4355,98.1263,261.9884,-0.00019317,-3.362e-05,0.0,0 STARLINK-3320,1 50839U 22001AN  24186.36658246 -.00003362  00000-0 -19317-3 0  9991,2 50839  53.2168  52.4355 0001370  98.1263 261.9884 15.08856183138944,6917.831,95.437,540.644,538.748,0.0
50839.0,STARLINK-3320,PAYLOAD,2024-07-04 21:30:58,15.08843899,0.0001323,53.2177,50.0558,95.8835,264.2308,3.2564e-05,2.3e-06,0.0,0 STARLINK-3320,1 50839U 22001AN  24186.89650607  .00000230  00000-0  32564-4 0  9991,2 50839  53.2177  50.0558 0001323  95.8835 264.2308 15.08843899139027,6917.868,95.437,540.649,538.818,0.0
50839.0,STARLINK-3320,PAYLOAD,2024-07-05 10:14:03,15.08842215,0.0001389,53.2158,47.6757,106.7178,253.3967,6.3036e-05,7.15e-06,0.0,0 STARLINK-3320,1 50839U 22001AN  24187.42642469  .00000715  00000-0  63036-4 0  9994,2 50839  53.2158  47.6757 0001389 106.7178 253.3967 15.08842215137820,6917.874,95.437,540.7,538.778,0.0
50839.0,STARLINK-3320,PAYLOAD,2024-07-05 21:21:44,15.08844978,0.0001184,53.2172,45.5957,86.2318,273.8809,5.9833e-05,6.65e-06,0.0,0 STARLINK-3320,1 50839U 22001AN  24187.89010383  .00000665  00000-0  59833-4 0  9993,2 50839  53.2172  45.5957 0001184  86.2318 273.8809 15.08844978137893,6917.865,95.437,540.549,538.911,0.0
50839.0,STARLINK-3320,PAYLOAD,2024-07-06 14:51:00,15.08830953,0.0001335,53.2185,42.325,94.1879,265.9266,2.0674e-05,4.1e-07,0.0,0 STARLINK-3320,1 50839U 22001AN  24188.61875419  .00000041  00000-0  20674-4 0  9992,2 50839  53.2185  42.3250 0001335  94.1879 265.9266 15.08830953138007,6917.908,95.438,540.697,538.85,0.0
50839.0,STARLINK-3320,PAYLOAD,2024-07-06 21:12:32,15.08835461,0.0001191,53.2179,41.1384,89.2026,270.9103,-7.7486e-06,-4.11e-06,0.0,0 STARLINK-3320,1 50839U 22001AN  24188.88371334 -.00000411  00000-0 -77486-5 0  9995,2 50839  53.2179  41.1384 0001191  89.2026 270.9103 15.08835461139325,6917.894,95.438,540.583,538.935,0.0
50839.0,STARLINK-3320,PAYLOAD,2024-07-07 06:44:51,15.08838264,0.00013,53.219,39.352,90.7117,269.4024,-2.788e-06,-3.32e-06,0.0,0 STARLINK-3320,1 50839U 22001AN  24189.28115196 -.00000332  00000-0 -27880-5 0  9997,2 50839  53.2190  39.3520 0001300  90.7117 269.4024 15.08838264138103,6917.886,95.438,540.65,538.851,0.0
50839.0,STARLINK-3320,PAYLOAD,2024-07-07 19:27:56,15.08840089,0.0001261,53.2171,36.9723,107.4193,252.6937,0.00010458,1.377e-05,0.0,0 STARLINK-3320,1 50839U 22001AN  24189.81106888  .00001377  00000-0  10458-3 0  9993,2 50839  53.2171  36.9723 0001261 107.4193 252.6937 15.08840089139461,6917.88,95.438,540.617,538.873,0.0
50839.0,STARLINK-3320,PAYLOAD,2024-07-08 06:35:37,15.08847619,0.000129,53.2191,34.8887,74.5392,285.5742,5.1973e-05,5.4e-06,0.0,0 STARLINK-3320,1 50839U 22001AN  24190.27474483  .00000540  00000-0  51973-4 0  9993,2 50839  53.2191  34.8887 0001290  74.5392 285.5742 15.08847619138259,6917.857,95.437,540.615,538.83,0.0
50839.0,STARLINK-3320,PAYLOAD,2024-07-08 20:54:06,15.08836875,0.0001307,53.219,32.2187,95.6981,264.416,0.00011181,1.492e-05,0.0,0 STARLINK-3320,1 50839U 22001AN  24190.87091414  .00001492  00000-0  11181-3 0  9991,2 50839  53.2190  32.2187 0001307  95.6981 264.4160 15.08836875139624,6917.89,95.438,540.659,538.851,0.0
50839.0,STARLINK-3320,PAYLOAD,2024-07-09 22:20:17,15.08842433,0.0001266,53.2192,27.4584,94.1375,265.9762,-1.478e-06,-3.11e-06,0.0,0 STARLINK-3320,1 50839U 22001AN  24191.93075487 -.00000311  00000-0 -14780-5 0  9992,2 50839  53.2192  27.4584 0001266  94.1375 265.9762 15.08842433138505,6917.873,95.437,540.614,538.862,0.0
50839.0,STARLINK-3320,PAYLOAD,2024-07-10 12:38:45,15.08838849,0.000135,53.2185,24.783,83.9652,276.1494,6.7928e-05,7.93e-06,0.0,0 STARLINK-3320,1 50839U 22001AN  24192.52691574  .00000793  00000-0  67928-4 0  9992,2 50839  53.2185  24.7830 0001350  83.9652 276.1494 15.08838849138590,6917.884,95.438,540.683,538.815,0.0
50839.0,STARLINK-3320,PAYLOAD,2024-07-10 22:11:03,15.08845222,0.0001115,53.2175,23.0005,91.6509,268.4611,0.00012973,1.778e-05,0.0,0 STARLINK-3320,1 50839U 22001AN  24192.92434935  .00001778  00000-0  12973-3 0  9995,2 50839  53.2175  23.0005 0001115  91.6509 268.4611 15.08845222138656,6917.864,95.437,540.501,538.958,0.0
50839.0,STARLINK-3320,PAYLOAD,2024-07-11 12:29:32,15.08815792,0.0001258,53.2159,20.324,89.3708,270.7428,0.00041274,6.283e-05,0.0,0 STARLINK-3320,1 50839U 22001AN  24193.52051449  .00006283  00000-0  41274-3 0  9999,2 50839  53.2159  20.3240 0001258  89.3708 270.7428 15.08815792138743,6917.954,95.439,540.69,538.949,0.0
50839.0,STARLINK-3320,PAYLOAD,2024-07-11 18:51:05,15.08824014,0.0001253,53.2158,19.1341,87.4744,272.6392,0.00033973,5.121e-05,0.0,0 STARLINK-3320,1 50839U 22001AN  24193.78547561  .00005121  00000-0  33973-3 0  9999,2 50839  53.2158  19.1341 0001253  87.4744 272.6392 15.08824014140060,6917.929,95.439,540.661,538.927,0.0
50839.0,STARLINK-3320,PAYLOAD,2024-07-12 12:20:19,15.08844255,0.0001693,53.2164,15.8615,84.7387,275.3798,3.6585e-05,2.94e-06,0.0,0 STARLINK-3320,1 50839U 22001AN  24194.51411325  .00000294  00000-0  36585-4 0  9998,2 50839  53.2164  15.8615 0001693  84.7387 275.3798 15.08844255140176,6917.867,95.437,540.904,538.561,0.0
50839.0,STARLINK-3320,PAYLOAD,2024-07-12 18:41:51,15.08846954,0.0001558,53.2155,14.6709,91.3792,268.7379,5.9651e-05,6.62e-06,0.0,0 STARLINK-3320,1 50839U 22001AN  24194.77906934  .00000662  00000-0  59651-4 0  9999,2 50839  53.2155  14.6709 0001558  91.3792 268.7379 15.08846954138931,6917.859,95.437,540.802,538.646,0.0
50839.0,STARLINK-3320,PAYLOAD,2024-07-13 12:11:06,15.08839665,0.0001225,53.2175,11.4004,86.3855,273.7277,-7.5494e-06,-4.08e-06,0.0,0 STARLINK-3320,1 50839U 22001AN  24195.50771599 -.00000408  00000-0 -75494-5 0  9992,2 50839  53.2175  11.4004 0001225  86.3855 273.7277 15.08839665140321,6917.881,95.438,540.594,538.899,0.0
